ONEWEB-0627             
1 55168U 23004AE  23234.98001794  .00000013  00000+0 -15291-5 0  9993
2 55168  87.9561 210.4157 0002700  66.8818 293.2605 13.30818710 32014
ONEWEB-0628             
1 55169U 23004AF  23235.25001157  .00000015  00000+0  00000+0 0  9995
2 55169  87.5329 195.8264 0005718 203.4207 201.7804 13.67106016 32981
ONEWEB-0629             
1 55170U 23004AG  23234.94300223 -.00000807  00000+0 -17320-2 0  9995
2 55170  87.9704 210.3717 0002161 114.3008 245.8357 13.30958550 32012
ONEWEB-0631             
1 55171U 23004AH  23234.72925366  .00002274  00000+0  41031-3 0  9998
2 55171  86.6335 192.0247 0001837 118.9620 241.1778 14.66091671 33156
ONEWEB-0709             
1 55172U 23004AJ  23235.03652138  .00000528  00000+0  14547-2 0  9999
2 55172  87.8911 225.5146 0002923  80.5942 279.5516 13.11391060 30996
ONEWEB-0710             
1 55173U 23004AK  23235.00528745  .00000045  00000+0  66654-4 0  9995
2 55173  87.9707 210.3698 0002591 108.5112 251.6308 13.30903881 32023
ONEWEB-0711             
1 55174U 23004AL  23234.39640416 -.00000497  00000+0 -14417-2 0  9998
2 55174  87.8907 225.6168 0001673  54.3057 305.8227 13.11251953 30870
ONEWEB-0713             
1 55175U 23004AM  23234.49356700  .00000351  00000+0  95554-3 0  9999
2 55175  87.8906 225.6067 0001594  68.1866 291.9431 13.11429856 30861
ONEWEB-0715             
1 55176U 23004AN  23235.02189526 -.00000066  00000+0 -22397-3 0  9990
2 55176  87.8771 225.5223 0001803  84.0996 276.0338 13.11254026 30987
ONEWEB-0716             
1 55177U 23004AP  23234.96642347  .00000013  00000+0 -20327-6 0  9993
2 55177  87.9451 210.4366 0002161  99.2119 260.9264 13.30686404 32014
ONEWEB-0717             
1 55178U 23004AQ  23233.96929155  .00000030  00000+0  35821-4 0  9999
2 55178  88.0768 210.4521 0008371 201.7656 158.3129 13.30825992 31933
ONEWEB-0719             
1 55179U 23004AR  23234.50525103  .00000039  00000+0  53591-4 0  9999
2 55179  87.9630 210.4285 0003350 183.0463 177.0657 13.31505338 31953
ONEWEB-0530             
1 55796U 23029A   23235.25001157 -.00815403  00000+0 -15383+0 0  9995
2 55796  86.6780 125.7720 0001316  88.7747 358.6684 14.67438480 25513
ONEWEB-0534             
1 55797U 23029B   23234.91667824 -.00799279  00000+0 -15076+0 0  9998
2 55797  86.6806 125.8350 0001520  94.5113 326.6385 14.67390139 25434
ONEWEB-0556             
1 55798U 23029C   23235.25001157 -.00805267  00000+0 -15026+0 0  9998
2 55798  86.6743 125.7296 0002321 113.0733  49.7874 14.67883647 25491
ONEWEB-0562             
1 55799U 23029D   23235.25001157 -.00800840  00000+0 -14982+0 0  9991
2 55799  86.6773 125.6894 0001944 125.9951 250.4788 14.67756258 25483
ONEWEB-0563             
1 55800U 23029E   23234.91667824 -.00816660  00000+0 -15686+0 0  9994
2 55800  86.6839 125.9450 0001134  98.0094 286.1769 14.66648007 25430
ONEWEB-0564             
1 55801U 23029F   23235.25001157 -.00797781  00000+0 -15151+0 0  9993
2 55801  86.6806 125.6978 0002515 123.1978 317.6813 14.67077679 25513
ONEWEB-0638             
1 55802U 23029G   23235.25001157  .00000014  00000+0  00000+0 0  9995
2 55802  87.7099 134.7188 0003764 309.5321 137.0407 13.46290380 24887
ONEWEB-0639             
1 55803U 23029H   23234.13556962 -.00000019  00000+0 -79486-4 0  9997
2 55803  87.9289 149.9401 0002680 112.9428 247.1987 13.19725033 23734
ONEWEB-0640             
1 55804U 23029J   23235.25001157  .00000014  00000+0  00000+0 0  9997
2 55804  87.6431 134.8090 0002314  10.0060 337.2694 13.46678870 24870
ONEWEB-0641             
1 55805U 23029K   23234.13133720 -.00000035  00000+0 -11991-3 0  9996
2 55805  87.9225 149.9952 0002163  85.8545 274.2835 13.19724918 23746
ONEWEB-0642             
1 55806U 23029L   23233.29311810 -.00000552  00000+0 -14117-2 0  9997
2 55806  87.9291 150.1086 0002724 104.2776 255.8659 13.19724089 23622
ONEWEB-0643             
1 55807U 23029M   23235.25001157  .00000014  00000+0  00000+0 0  9990
2 55807  87.6860 134.7402 0000821  97.0661  98.4319 13.47990308 24883
ONEWEB-0644             
1 55808U 23029N   23233.28896697 -.00001431  00000+0 -36071-2 0  9999
2 55808  87.9221 150.1519 0002484  91.7351 268.4066 13.19727588 23629
ONEWEB-0645             
1 55809U 23029P   23234.87687613  .00000111  00000+0  24415-3 0  9994
2 55809  87.9222 149.7973 0001960  97.9666 262.1689 13.19730806 23836
ONEWEB-0646             
1 55810U 23029Q   23234.14820416  .00000091  00000+0  19476-3 0  9994
2 55810  87.9198 149.9590 0002314  83.9651 276.1745 13.19732919 23723
ONEWEB-0648             
1 55811U 23029R   23235.25001157  .00000014  00000+0  00000+0 0  9995
2 55811  87.6992 134.6790 0003405  90.8809 306.7504 13.47074255 24884
ONEWEB-0649             
1 55812U 23029S   23234.18610760  .00000085  00000+0  18027-3 0  9993
2 55812  87.9207 149.9647 0002148  98.4127 261.7249 13.19725616 23762
ONEWEB-0650             
1 55813U 23029T   23234.33350890  .00000047  00000+0  84314-4 0  9997
2 55813  87.9242 149.9044 0002333  84.7805 275.3594 13.19730335 23757
ONEWEB-0652             
1 55814U 23029U   23235.25001157  .00000014  00000+0  00000+0 0  9998
2 55814  87.6830 134.7196 0000968 114.0841   4.6690 13.46793645 24830
ONEWEB-0653             
1 55815U 23029V   23235.25001157  .00000014  00000+0  00000+0 0  9999
2 55815  87.6825 134.6498 0002245 129.9778 283.7189 13.48250524 24865
ONEWEB-0654             
1 55816U 23029W   23235.25001157  .00000014  00000+0  00000+0 0  9990
2 55816  87.7076 134.6875 0002549 269.7758 340.4162 13.48264271 24880
ONEWEB-0656             
1 55817U 23029X   23234.91667824 -.00788947  00000+0 -17088+0 0  9996
2 55817  86.7441 125.9796 0002379  97.0363 199.8516 14.61157345 25447
ONEWEB-0657             
1 55818U 23029Y   23234.32929558  .00005089  00000+0  12666-1 0  9993
2 55818  87.9186 149.9194 0002438  56.2557 303.8808 13.19763579 23750
ONEWEB-0658             
1 55819U 23029Z   23233.79438562  .00000108  00000+0  23689-3 0  9990
2 55819  87.9278 149.9629 0002426  96.4849 263.6560 13.19729406 23695
ONEWEB-0660             
1 55820U 23029AA  23235.25001157  .00000014  00000+0  00000+0 0  9995
2 55820  87.6857 134.6835 0004012 135.2584  57.2876 13.48548902 24889
ONEWEB-0661             
1 55821U 23029AB  23235.25001157  .00000014  00000+0  00000+0 0  9996
2 55821  87.7000 134.7236 0001277 181.6437   1.2955 13.46500406 24858
ONEWEB-0662             
1 55822U 23029AC  23235.25001157  .00000014  00000+0  00000+0 0  9997
2 55822  87.7001 134.7543 0001453 173.2999 281.5809 13.50159758 24910
ONEWEB-0663             
1 55823U 23029AD  23234.91667824 -.00778433  00000+0 -16757+0 0  9994
2 55823  86.7392 125.9994 0001362 113.8779 193.2207 14.61402738 25442
ONEWEB-0664             
1 55824U 23029AE  23235.25001157 -.00737760  00000+0 -16050+0 0  9998
2 55824  86.7481 125.8414 0001623  83.6784  77.3877 14.60777057 25496
ONEWEB-0665             
1 55825U 23029AF  23235.25001157  .00000014  00000+0  00000+0 0  9990
2 55825  87.7085 134.6964 0002593 103.1064 298.9226 13.47316186 24878
ONEWEB-0666             
1 55826U 23029AG  23235.25001157 -.00744946  00000+0 -16010+0 0  9990
2 55826  86.7463 125.8922 0003531  97.9839 133.4452 14.61346662 25499
ONEWEB-0667             
1 55827U 23029AH  23234.91667824 -.00786151  00000+0 -17475+0 0  9992
2 55827  86.7523 126.0278 0001669  77.7477 146.4528 14.59971556 25444
ONEWEB-0669             
1 55828U 23029AJ  23234.91667824 -.00776842  00000+0 -16850+0 0  9995
2 55828  86.7464 125.9770 0002238 115.7925 168.8726 14.61049568 25448
ONEWEB-0670             
1 55829U 23029AK  23235.25001157  .00000014  00000+0  00000+0 0  9994
2 55829  87.7050 134.7204 0001109  60.9282 202.3003 13.50190916 24895
ONEWEB-0671             
1 55830U 23029AL  23233.33529651  .00000108  00000+0  23761-3 0  9994
2 55830  87.9297 150.1006 0001996  78.2464 281.8893 13.19722737 23628
ONEWEB-0672             
1 55831U 23029AM  23235.25001157 -.00783481  00000+0 -17360+0 0  9992
2 55831  86.7570 125.8555 0002142 102.6974  80.3874 14.60105554 25486
ONEWEB-0673             
1 55832U 23029AN  23233.76487575  .00000068  00000+0  13658-3 0  9990
2 55832  87.9191 150.0917 0001985  85.2972 274.8387 13.19729928 23701
ONEWEB-0674             
1 55833U 23029AP  23235.25001157  .00000014  00000+0  00000+0 0  9999
2 55833  87.7070 134.7082 0001535 232.7331 113.1121 13.46711376 24875
ONEWEB-0675             
1 55834U 23029AQ  23233.78173824  .00000131  00000+0  29460-3 0  9992
2 55834  87.9210 150.0584 0002573  74.2402 285.9014 13.19725795 23725
ONEWEB-0720             
1 55835U 23029AR  23234.30404763  .00000101  00000+0  21970-3 0  9996
2 55835  87.9199 149.9645 0002085  96.8771 263.2599 13.19726049 23690
ONEWEB-0537             
1 56046U 23043A   23234.69448878  .00002229  00000+0  23446-3 0  9997
2 56046  86.8922  85.0536 0005189 114.9728 245.2039 14.88961129 23302
ONEWEB-0538             
1 56047U 23043B   23234.68425532  .00002272  00000+0  23890-3 0  9990
2 56047  86.8963  85.1180 0003986 122.3288 237.8325 14.88987247 23305
ONEWEB-0546             
1 56048U 23043C   23234.12025893  .00002254  00000+0  23722-3 0  9990
2 56048  86.8896  85.2669 0002509  36.8222 323.3177 14.88948478 23221
ONEWEB-0547             
1 56049U 23043D   23235.25001157  .00000016  00000+0  00000+0 0  9997
2 56049  87.6237  89.2296 0004463 110.6475  17.4751 13.81834851 23143
ONEWEB-0548             
1 56050U 23043E   23234.10968565  .00002435  00000+0  25689-3 0  9998
2 56050  86.8981  85.3748 0002079  59.4857 300.6575 14.88893374 23218
ONEWEB-0549             
1 56051U 23043F   23235.25001157  .00000016  00000+0  00000+0 0  9990
2 56051  87.6317  89.2324 0003473  91.8301  84.4230 13.81436647 23153
ONEWEB-0550             
1 56052U 23043G   23235.25001157  .00000016  00000+0  00000+0 0  9991
2 56052  87.6260  89.2604 0004022 114.1945 210.3566 13.82504969 23141
